HAWK-11B                
1 62379U 24247C   26068.44730104  .00009093  00000+0  32842-3 0  9993
2 62379  45.0161 115.7610 0004690 333.0326  27.0314 15.28847070 67738
STARLINK-32899          
1 62994U 25031P   26068.18533830  .00028602  00000+0  10440-2 0  9992
2 62994  42.9974 146.5747 0003742 291.0708  68.9743 15.27602946 61011
